     2.11           NAVIGATION DATA     GPS(GPS)            RINEX VERSION / TYPE
cnvtToRINEX 2.17.0  convertToRINEX OPR  19-Aug-13 19:49 UTC PGM / RUN BY / DATE 
----------------------------------------------------------- COMMENT             
    0.1211D-07  0.2235D-07 -0.5960D-07 -0.1192D-06          ION ALPHA           
    0.1004D+06  0.1147D+06 -0.6554D+05 -0.3277D+06          ION BETA            
   -0.372529029846D-08-0.142108547152D-13   319488      218 DELTA-UTC: A0,A1,T,W
    16                                                      LEAP SECONDS        
                                                            END OF HEADER       
27 13 08 19 16 00  0.0-0.259215012193D-04-0.477484718431D-11 0.000000000000D+00
    0.270000000000D+02-0.134843750000D+03 0.463055002385D-08 0.778163116246D+00
   -0.684894621372D-05 0.372706796043D-03 0.737234950066D-05 0.515366774368D+04
    0.144000000000D+06 0.279396772385D-07 0.226409745096D+01-0.372529029846D-08
    0.960800058848D+00 0.236687500000D+03 0.953123655163D+00-0.822569977627D-08
   -0.398230873629D-09 0.100000000000D+01 0.175400000000D+04 0.000000000000D+00
    0.240000000000D+01 0.000000000000D+00 0.186264514923D-08 0.270000000000D+02
    0.138486000000D+06 0.400000000000D+01 0.000000000000D+00 0.000000000000D+00
16 13 08 19 16 00  0.0-0.248364638537D-03 0.682121026330D-12 0.000000000000D+00
    0.840000000000D+02 0.280625000000D+02 0.453911764390D-08 0.259245124982D+01
    0.147148966789D-05 0.706533645280D-02 0.112876296043D-05 0.515369027901D+04
    0.144000000000D+06-0.143423676491D-06 0.127162712627D+01 0.596046447754D-07
    0.985319148097D+00 0.372000000000D+03 0.138200321718D+00-0.829177395710D-08
    0.141434462742D-09 0.100000000000D+01 0.175400000000D+04 0.000000000000D+00
    0.240000000000D+01 0.000000000000D+00-0.977888703346D-08 0.840000000000D+02
    0.138468000000D+06 0.400000000000D+01 0.000000000000D+00 0.000000000000D+00
 3 13 08 19 16 00  0.0 0.248214229941D-03 0.522959453519D-11 0.000000000000D+00
    0.910000000000D+02-0.123093750000D+03 0.543486924126D-08 0.360783434752D+00
   -0.624358654022D-05 0.166547538247D-01 0.568665564060D-05 0.515371620941D+04
    0.144000000000D+06-0.232830643654D-06 0.212234842646D+01-0.745058059692D-08
    0.935300189819D+00 0.260437500000D+03 0.132171074407D+01-0.891930009608D-08
   -0.481091467962D-09 0.100000000000D+01 0.175400000000D+04 0.000000000000D+00
    0.340000000000D+01 0.000000000000D+00-0.465661287308D-08 0.910000000000D+02
    0.138468000000D+06 0.400000000000D+01 0.000000000000D+00 0.000000000000D+00
19 13 08 19 16 00  0.0-0.397748779505D-03-0.284217094304D-11 0.000000000000D+00
    0.105000000000D+03-0.128343750000D+03 0.452125975719D-08 0.821912946830D+00
   -0.645034015179D-05 0.950621394441D-02 0.828318297863D-05 0.515373601151D+04
    0.144000000000D+06-0.186264514923D-08 0.235953977422D+01 0.126659870148D-06
    0.963493222274D+00 0.219468750000D+03 0.365432181717D+00-0.818498379457D-08
   -0.470376735936D-09 0.100000000000D+01 0.175400000000D+04 0.000000000000D+00
    0.240000000000D+01 0.000000000000D+00-0.144354999065D-07 0.105000000000D+03
    0.138468000000D+06 0.400000000000D+01 0.000000000000D+00 0.000000000000D+00
11 13 08 19 16 00  0.0-0.411732122302D-03-0.352429196937D-11 0.000000000000D+00
    0.102000000000D+03-0.315625000000D+02 0.593917596195D-08-0.965038378293D+00
   -0.158511102200D-05 0.143946147291D-01 0.118389725685D-04 0.515369633675D+04
    0.144000000000D+06-0.465661287308D-07 0.301338318607D+01 0.322237610817D-06
    0.889762955684D+00 0.113500000000D+03 0.119820792288D+01-0.880608109434D-08
    0.109290266664D-09 0.100000000000D+01 0.175400000000D+04 0.000000000000D+00
    0.340000000000D+01 0.000000000000D+00-0.116415321827D-07 0.102000000000D+03
    0.138528000000D+06 0.400000000000D+01 0.000000000000D+00 0.000000000000D+00
 8 13 08 19 16 00  0.0 0.802986323833D-05 0.227373675443D-12 0.000000000000D+00
    0.660000000000D+02 0.125562500000D+03 0.358550649359D-08-0.175392419252D+01
    0.614300370216D-05 0.133235817775D-01 0.931881368160D-05 0.515370225906D+04
    0.144000000000D+06 0.428408384323D-07 0.286679126342D+00-0.124797224998D-06
    0.998253146233D+00 0.220937500000D+03-0.285174621013D+01-0.753995692661D-08
    0.541451125041D-09 0.100000000000D+01 0.175400000000D+04 0.000000000000D+00
    0.340000000000D+01 0.000000000000D+00-0.372529029846D-08 0.660000000000D+02
    0.138858000000D+06 0.400000000000D+01 0.000000000000D+00 0.000000000000D+00
 9 13 08 19 16 00  0.0 0.262404792011D-03 0.261479726760D-11 0.000000000000D+00
    0.400000000000D+01 0.110437500000D+03 0.387909015110D-08-0.870374375729D-02
    0.553019344807D-05 0.169609305449D-01 0.105146318674D-04 0.515372537422D+04
    0.144000000000D+06-0.294297933578D-06 0.170995085877D+00-0.633299350739D-07
    0.984034483660D+00 0.194281250000D+03 0.171633632503D+01-0.798247535928D-08
    0.275368613065D-09 0.100000000000D+01 0.175400000000D+04 0.000000000000D+00
    0.340000000000D+01 0.000000000000D+00-0.558793544769D-08 0.260000000000D+03
    0.139386000000D+06 0.400000000000D+01 0.000000000000D+00 0.000000000000D+00
13 13 08 19 15 59 44.0 0.884705223143D-04-0.375166564481D-11 0.000000000000D+00
    0.400000000000D+01-0.219375000000D+02 0.387623288923D-08 0.113434588576D+01
   -0.116787850857D-05 0.505567295477D-02 0.106859952211D-04 0.515371569443D+04
    0.143984000000D+06 0.838190317154D-07-0.772360246876D+00-0.465661287308D-07
    0.980576777302D+00 0.183562500000D+03 0.219265166554D+01-0.772103589785D-08
   -0.491806199988D-09 0.100000000000D+01 0.175400000000D+04 0.000000000000D+00
    0.240000000000D+01 0.000000000000D+00-0.107102096081D-07 0.400000000000D+01
    0.138546000000D+06 0.400000000000D+01 0.000000000000D+00 0.000000000000D+00
23 13 08 19 16 00  0.0 0.560646876693D-04-0.352429196937D-11 0.000000000000D+00
    0.250000000000D+02-0.349062500000D+02 0.461376361035D-08 0.368940585502D+00
   -0.173784792423D-05 0.886557996273D-02 0.991486012936D-05 0.515366950607D+04
    0.144000000000D+06 0.106170773506D-06-0.862431835062D+00 0.176951289177D-06
    0.954721789298D+00 0.185656250000D+03-0.283697492294D+01-0.815426822943D-08
   -0.523593238331D-09 0.100000000000D+01 0.175400000000D+04 0.000000000000D+00
    0.240000000000D+01 0.000000000000D+00-0.200234353542D-07 0.250000000000D+02
    0.138468000000D+06 0.400000000000D+01 0.000000000000D+00 0.000000000000D+00
 7 13 08 19 16 00  0.0 0.249124597758D-03 0.420641299570D-11 0.000000000000D+00
    0.107000000000D+03 0.114406250000D+03 0.397838000121D-08-0.118360402570D+01
    0.582821667194D-05 0.682020548265D-02 0.102035701275D-04 0.515367764282D+04
    0.144000000000D+06 0.707805156708D-07 0.193612921441D+00-0.819563865662D-07
    0.975421487637D+00 0.188375000000D+03-0.290304831872D+01-0.779961059937D-08
    0.343585740297D-09 0.100000000000D+01 0.175400000000D+04 0.000000000000D+00
    0.240000000000D+01 0.000000000000D+00-0.107102096081D-07 0.107000000000D+03
    0.138468000000D+06 0.400000000000D+01 0.000000000000D+00 0.000000000000D+00
 6 13 08 19 16 00  0.0 0.101593323052D-04 0.196678229258D-10 0.000000000000D+00
    0.410000000000D+02-0.135906250000D+03 0.509306928964D-08 0.217666024030D+01
   -0.684708356857D-05 0.809028150979D-02 0.657886266708D-05 0.515368383217D+04
    0.144000000000D+06 0.279396772385D-07 0.220246428365D+01 0.149011611938D-06
    0.941945381086D+00 0.243281250000D+03-0.245099329919D+00-0.843070831570D-08
   -0.476448417418D-09 0.100000000000D+01 0.175400000000D+04 0.000000000000D+00
    0.240000000000D+01 0.000000000000D+00-0.512227416039D-08 0.410000000000D+02
    0.138468000000D+06 0.400000000000D+01 0.000000000000D+00 0.000000000000D+00
28 13 08 19 16 00  0.0 0.285488087684D-03 0.318323145621D-11 0.000000000000D+00
    0.690000000000D+02 0.141875000000D+02 0.438411118726D-08 0.241582821130D+01
    0.497326254845D-06 0.186839492526D-01 0.607222318649D-06 0.515364803505D+04
    0.144000000000D+06 0.186264514923D-06 0.127777066684D+01-0.219792127609D-06
    0.983780281163D+00 0.377468750000D+03-0.176474637478D+01-0.804604943597D-08
    0.928610108910D-11 0.100000000000D+01 0.175400000000D+04 0.000000000000D+00
    0.240000000000D+01 0.000000000000D+00-0.107102096081D-07 0.690000000000D+02
    0.141468000000D+06 0.400000000000D+01 0.000000000000D+00 0.000000000000D+00
11 13 08 19 15 59 44.0-0.411733984947D-03-0.352429196937D-11 0.000000000000D+00
    0.300000000000D+01-0.315625000000D+02 0.593917596195D-08-0.967372061786D+00
   -0.158511102200D-05 0.143946157768D-01 0.118389725685D-04 0.515369632912D+04
    0.143984000000D+06-0.465661287308D-07 0.301338332943D+01 0.322237610817D-06
    0.889762952758D+00 0.113500000000D+03 0.119820795067D+01-0.880608109434D-08
    0.109290266664D-09 0.100000000000D+01 0.175400000000D+04 0.000000000000D+00
    0.240000000000D+01 0.000000000000D+00-0.116415321827D-07 0.300000000000D+01
    0.141876000000D+06 0.400000000000D+01 0.000000000000D+00 0.000000000000D+00
 1 13 08 19 16 00  0.0 0.649476423860D-04 0.454747350886D-11 0.000000000000D+00
    0.250000000000D+02 0.100000000000D+01 0.429017870316D-08-0.587474127707D+00
   -0.633299350739D-07 0.222263881005D-02 0.118818134069D-04 0.515369777679D+04
    0.144000000000D+06 0.689178705215D-07-0.296680357452D+01-0.316649675369D-07
    0.960824242346D+00 0.151906250000D+03 0.329338189115D+00-0.787104214621D-08
    0.352157525917D-09 0.100000000000D+01 0.175400000000D+04 0.000000000000D+00
    0.240000000000D+01 0.000000000000D+00 0.838190317154D-08 0.250000000000D+02
    0.142098000000D+06 0.400000000000D+01 0.000000000000D+00 0.000000000000D+00
